{"type": "FeatureCollection", "features": [ {"type": "Feature", "properties": {"norad_id": 28659, "name": "DIRECTV 8", "group": "intelsat", "lat": 0.049689623389162156, "lon": 115.4972991474467, "alt_km": 35798.49617732523, "timestamp": "2025-12-21T09:37:22.315963+00:00", "meta": {"OBJECT_NAME": "DIRECTV 8", "OBJECT_ID": "2005-019A", "EPOCH": "2025-12-21T04:32:38.608800", "MEAN_MOTION": 1.00270172, "ECCENTRICITY": 0.0002908, "INCLINATION": 0.0251, "RA_OF_ASC_NODE": 17.7995, "ARG_OF_PERICENTER": 264.2314, "MEAN_ANOMALY": 117.0933, "EPHEMERIS_TYPE": 0, "CLASSIFICATION_TYPE": "U", "NORAD_CAT_ID": 28659, "ELEMENT_SET_NO": 999, "REV_AT_EPOCH": 7528, "BSTAR": 0, "MEAN_MOTION_DOT": 0, "MEAN_MOTION_DDOT": 0}, "tle": {"line1": "1 28659U 05019A   25355.18933575  .00000000  00000+0  00000+0 0  9994", "line2": "2 28659   0.0251  17.7995 0002908 264.2314 117.0933  1.00270172 75285"}}, "geometry": {"type": "Point", "coordinates": [115.4972991474467, 0.049689623389162156]}}, {"type": "Feature", "properties": {"norad_id": 28702, "name": "GALAXY 28 (G-28)", "group": "intelsat", "lat": 2.5855323265695276, "lon": 145.81946510086956, "alt_km": 35793.93146851175, "timestamp": "2025-12-21T09:37:22.315975+00:00", "meta": {"OBJECT_NAME": "GALAXY 28 (G-28)", "OBJECT_ID": "2005-022A", "EPOCH": "2025-12-20T00:49:30.482112", "MEAN_MOTION": 1.00271047, "ECCENTRICITY": 0.00029384, "INCLINATION": 2.8382, "RA_OF_ASC_NODE": 81.1982, "ARG_OF_PERICENTER": 194.0723, "MEAN_ANOMALY": 97.2981, "EPHEMERIS_TYPE": 0, "CLASSIFICATION_TYPE": "U", "NORAD_CAT_ID": 28702, "ELEMENT_SET_NO": 999, "REV_AT_EPOCH": 5017, "BSTAR": 0, "MEAN_MOTION_DOT": -1.65e-06, "MEAN_MOTION_DDOT": 0}, "tle": {"line1": "1 28702U 05022A   25354.03438058 -.00000165  00000+0  00000+0 0  9999", "line2": "2 28702   2.8382  81.1982 0002938 194.0723  97.2981  1.00271047 50172"}}, "geometry": {"type": "Point", "coordinates": [145.81946510086956, 2.5855323265695276]}}, {"type": "Feature", "properties": {"norad_id": 29236, "name": "GALAXY 16 (G-16)", "group": "intelsat", "lat": 0.0028850389853961843, "lon": 135.529154749066, "alt_km": 35793.792426511536, "timestamp": "2025-12-21T09:37:22.315987+00:00", "meta": {"OBJECT_NAME": "GALAXY 16 (G-16)", "OBJECT_ID": "2006-023A", "EPOCH": "2025-12-21T04:01:00.037056", "MEAN_MOTION": 1.0027102, "ECCENTRICITY": 0.0002461, "INCLINATION": 0.0031, "RA_OF_ASC_NODE": 275.8302, "ARG_OF_PERICENTER": 355.5918, "MEAN_ANOMALY": 139.813, "EPHEMERIS_TYPE": 0, "CLASSIFICATION_TYPE": "U", "NORAD_CAT_ID": 29236, "ELEMENT_SET_NO": 999, "REV_AT_EPOCH": 7118, "BSTAR": 0, "MEAN_MOTION_DOT": -1.04e-06, "MEAN_MOTION_DDOT": 0}, "tle": {"line1": "1 29236U 06023A   25355.16736154 -.00000104  00000+0  00000+0 0  9990", "line2": "2 29236   0.0031 275.8302 0002461 355.5918 139.8130  1.00271020 71189"}}, "geometry": {"type": "Point", "coordinates": [135.529154749066, 0.0028850389853961843]}}, {"type": "Feature", "properties": {"norad_id": 29494, "name": "DIRECTV 9S", "group": "intelsat", "lat": 1.5275931518850145, "lon": 133.31031695081208, "alt_km": 35795.54238060902, "timestamp": "2025-12-21T09:37:22.315999+00:00", "meta": {"OBJECT_NAME": "DIRECTV 9S", "OBJECT_ID": "2006-043A", "EPOCH": "2025-12-21T05:07:11.381088", "MEAN_MOTION": 1.00271547, "ECCENTRICITY": 0.0002838, "INCLINATION": 1.9607, "RA_OF_ASC_NODE": 83.1237, "ARG_OF_PERICENTER": 193.1138, "MEAN_ANOMALY": 149.3848, "EPHEMERIS_TYPE": 0, "CLASSIFICATION_TYPE": "U", "NORAD_CAT_ID": 29494, "ELEMENT_SET_NO": 999, "REV_AT_EPOCH": 4959, "BSTAR": 0, "MEAN_MOTION_DOT": -9.2e-07, "MEAN_MOTION_DDOT": 0}, "tle": {"line1": "1 29494U 06043A   25355.21332617 -.00000092  00000+0  00000+0 0  9996", "line2": "2 29494   1.9607  83.1237 0002838 193.1138 149.3848  1.00271547 49595"}}, "geometry": {"type": "Point", "coordinates": [133.31031695081208, 1.5275931518850145]}}, {"type": "Feature", "properties": {"norad_id": 31307, "name": "GALAXY 17 (G-17)", "group": "intelsat", "lat": 2.341372709026902, "lon": 149.5042744162308, "alt_km": 35791.30871015226, "timestamp": "2025-12-21T09:37:22.316011+00:00", "meta": {"OBJECT_NAME": "GALAXY 17 (G-17)", "OBJECT_ID": "2007-016B", "EPOCH": "2025-12-21T04:46:03.259776", "MEAN_MOTION": 1.00270211, "ECCENTRICITY": 0.0005336, "INCLINATION": 2.5198, "RA_OF_ASC_NODE": 82.1905, "ARG_OF_PERICENTER": 170.154, "MEAN_ANOMALY": 184.2166, "EPHEMERIS_TYPE": 0, "CLASSIFICATION_TYPE": "U", "NORAD_CAT_ID": 31307, "ELEMENT_SET_NO": 999, "REV_AT_EPOCH": 6801, "BSTAR": 0, "MEAN_MOTION_DOT": -1.85e-06, "MEAN_MOTION_DDOT": 0}, "tle": {"line1": "1 31307U 07016B   25355.19864884 -.00000185  00000+0  00000+0 0  9999", "line2": "2 31307   2.5198  82.1905 0005336 170.1540 184.2166  1.00270211 68018"}}, "geometry": {"type": "Point", "coordinates": [149.5042744162308, 2.341372709026902]}}, {"type": "Feature", "properties": {"norad_id": 31862, "name": "DIRECTV 10", "group": "intelsat", "lat": -0.0009899071111179195, "lon": 131.74658240526526, "alt_km": 35785.891518175464, "timestamp": "2025-12-21T09:37:22.316022+00:00", "meta": {"OBJECT_NAME": "DIRECTV 10", "OBJECT_ID": "2007-032A", "EPOCH": "2025-12-20T21:18:05.647104", "MEAN_MOTION": 1.00270377, "ECCENTRICITY": 2.73e-05, "INCLINATION": 0.0073, "RA_OF_ASC_NODE": 111.6707, "ARG_OF_PERICENTER": 78.7977, "MEAN_ANOMALY": 115.9664, "EPHEMERIS_TYPE": 0, "CLASSIFICATION_TYPE": "U", "NORAD_CAT_ID": 31862, "ELEMENT_SET_NO": 999, "REV_AT_EPOCH": 4380, "BSTAR": 0, "MEAN_MOTION_DOT": -8e-07, "MEAN_MOTION_DDOT": 0}, "tle": {"line1": "1 31862U 07032A   25354.88756536 -.00000080  00000+0  00000+0 0  9996", "line2": "2 31862   0.0073 111.6707 0000273  78.7977 115.9664  1.00270377 43806"}}, "geometry": {"type": "Point", "coordinates": [131.74658240526526, -0.0009899071111179195]}}, {"type": "Feature", "properties": {"norad_id": 32253, "name": "INTELSAT 11 (IS-11)", "group": "intelsat", "lat": -0.9723388888944453, "lon": 62.196393310148494, "alt_km": 36167.5617019206, "timestamp": "2025-12-21T09:37:22.316034+00:00", "meta": {"OBJECT_NAME": "INTELSAT 11 (IS-11)", "OBJECT_ID": "2007-044B", "EPOCH": "2025-12-21T02:06:42.858720", "MEAN_MOTION": 0.99052459, "ECCENTRICITY": 0.0008532, "INCLINATION": 3.1006, "RA_OF_ASC_NODE": 80.8847, "ARG_OF_PERICENTER": 169.216, "MEAN_ANOMALY": 60.4629, "EPHEMERIS_TYPE": 0, "CLASSIFICATION_TYPE": "U", "NORAD_CAT_ID": 32253, "ELEMENT_SET_NO": 999, "REV_AT_EPOCH": 6668, "BSTAR": 0, "MEAN_MOTION_DOT": -7.9e-07, "MEAN_MOTION_DDOT": 0}, "tle": {"line1": "1 32253U 07044B   25355.08799605 -.00000079  00000+0  00000+0 0  9999", "line2": "2 32253   3.1006  80.8847 0008532 169.2160  60.4629  0.99052459 66681"}}, "geometry": {"type": "Point", "coordinates": [62.196393310148494, -0.9723388888944453]}}, {"type": "Feature", "properties": {"norad_id": 32388, "name": "HORIZONS-2", "group": "intelsat", "lat": 2.105835577637366, "lon": 160.71962543409816, "alt_km": 35794.59304277438, "timestamp": "2025-12-21T09:37:22.316047+00:00", "meta": {"OBJECT_NAME": "HORIZONS-2", "OBJECT_ID": "2007-063B", "EPOCH": "2025-12-21T02:34:32.693376", "MEAN_MOTION": 1.00271456, "ECCENTRICITY": 0.0004597, "INCLINATION": 2.1421, "RA_OF_ASC_NODE": 82.8714, "ARG_OF_PERICENTER": 194.3466, "MEAN_ANOMALY": 137.5666, "EPHEMERIS_TYPE": 0, "CLASSIFICATION_TYPE": "U", "NORAD_CAT_ID": 32388, "ELEMENT_SET_NO": 999, "REV_AT_EPOCH": 6602, "BSTAR": 0, "MEAN_MOTION_DOT": -2.32e-06, "MEAN_MOTION_DDOT": 0}, "tle": {"line1": "1 32388U 07063B   25355.10732284 -.00000232  00000+0  00000+0 0  9993", "line2": "2 32388   2.1421  82.8714 0004597 194.3466 137.5666  1.00271456 66028"}}, "geometry": {"type": "Point", "coordinates": [160.71962543409816, 2.105835577637366]}}, {"type": "Feature", "properties": {"norad_id": 32729, "name": "DIRECTV 11", "group": "intelsat", "lat": 0.0018012075336338814, "lon": 135.35081630115195, "alt_km": 35789.48380664913, "timestamp": "2025-12-21T09:37:22.316063+00:00", "meta": {"OBJECT_NAME": "DIRECTV 11", "OBJECT_ID": "2008-013A", "EPOCH": "2025-12-21T04:01:00.076800", "MEAN_MOTION": 1.00259336, "ECCENTRICITY": 2.44e-05, "INCLINATION": 0.0471, "RA_OF_ASC_NODE": 197.144, "ARG_OF_PERICENTER": 213.2633, "MEAN_ANOMALY": 0.6368, "EPHEMERIS_TYPE": 0, "CLASSIFICATION_TYPE": "U", "NORAD_CAT_ID": 32729, "ELEMENT_SET_NO": 999, "REV_AT_EPOCH": 4380, "BSTAR": 0, "MEAN_MOTION_DOT": -1.01e-06, "MEAN_MOTION_DDOT": 0}, "tle": {"line1": "1 32729U 08013A   25355.16736200 -.00000101  00000+0  00000+0 0  9991", "line2": "2 32729   0.0471 197.1440 0000244 213.2633   0.6368  1.00259336 43800"}}, "geometry": {"type": "Point", "coordinates": [135.35081630115195, 0.0018012075336338814]}}, {"type": "Feature", "properties": {"norad_id": 32951, "name": "GALAXY 18 (G-18)", "group": "intelsat", "lat": 0.031162660227436762, "lon": 111.53479924493192, "alt_km": 35797.799206698364, "timestamp": "2025-12-21T09:37:22.316075+00:00", "meta": {"OBJECT_NAME": "GALAXY 18 (G-18)", "OBJECT_ID": "2008-024A", "EPOCH": "2025-12-21T04:32:38.608800", "MEAN_MOTION": 1.00271174, "ECCENTRICITY": 0.0002838, "INCLINATION": 0.0174, "RA_OF_ASC_NODE": 59.6193, "ARG_OF_PERICENTER": 215.9312, "MEAN_ANOMALY": 119.6116, "EPHEMERIS_TYPE": 0, "CLASSIFICATION_TYPE": "U", "NORAD_CAT_ID": 32951, "ELEMENT_SET_NO": 999, "REV_AT_EPOCH": 4406, "BSTAR": 0, "MEAN_MOTION_DOT": 4.8e-07, "MEAN_MOTION_DDOT": 0}, "tle": {"line1": "1 32951U 08024A   25355.18933575  .00000048  00000+0  00000+0 0  9995", "line2": "2 32951   0.0174  59.6193 0002838 215.9312 119.6116  1.00271174 44063"}}, "geometry": {"type": "Point", "coordinates": [111.53479924493192, 0.031162660227436762]}}]}